0 FENGYUN 1C DEB
1 30594U 99025ALZ 13281.46029057  .00000130  00000-0  76883-4 0   973
2 30594 098.9994 358.4378 0199452 312.5783 102.1634 14.14428565346749
0 FENGYUN 1C DEB
1 30594U 99025ALZ 13283.02979171  .00000146  00000-0  83827-4 0   982
2 30594 098.9994 000.0202 0199405 308.1144 173.9936 14.14430014346962
0 FENGYUN 1C DEB
1 30594U 99025ALZ 13284.08979351  .00000212  00000-0  11223-3 0   994
2 30594 098.9996 001.0891 0199425 305.0986 171.4831 14.14430219347113
0 FENGYUN 1C DEB
1 30594U 99025ALZ 13285.49464304  .00000225  00000-0  11820-3 0  1007
2 30594 098.9995 002.5057 0199401 301.0975 124.9310 14.14430426347317
0 FENGYUN 1C DEB
1 30594U 99025ALZ 13287.18480632  .00000275  00000-0  13965-3 0  1015
2 30594 098.9993 004.2101 0199403 296.2825 091.1890 14.14431343347558
0 FENGYUN 1C DEB
1 30594U 99025ALZ 13290.15587388  .00000263  00000-0  13435-3 0  1022
2 30594 098.9986 007.2062 0199414 287.8246 099.7792 14.14434495347976
0 FENGYUN 1C DEB
1 30594U 99025ALZ 13292.49802211  .00000370  00000-0  18075-3 0  1031
2 30594 098.9982 009.5677 0199409 281.1564 145.9570 14.14435297348300
0 FENGYUN 1C DEB
1 30594U 99025ALZ 13294.70933446  .00000396  00000-0  19188-3 0  1047
2 30594 098.9980 011.7972 0199450 274.8604 245.9255 14.14437486348618
